GALAXY 16           [PM]
1 29236C 06023A   20257.56958333 -.00000035  00000-0  00000-0 0  2577
2 29236   0.0026 172.8483 0002845  19.2650 266.9617  1.00270542    16
GALAXY 16               
1 29236C 06023A   20257.94788194 -.00000047  00000-0  00000-0 0  2578
2 29236   0.0028 170.8393 0002797  21.0121  43.7827  1.00270522    18
GALAXY 17               
1 31307C 07016B   20254.00000000 -.00000084  00000-0  00000-0 0  2548
2 31307   0.0190  83.4966 0003576  99.6300  75.3774  1.00272990    14
GALAXY 17               
1 31307C 07016B   20257.94788194 -.00000085  00000-0  00000-0 0  2575
2 31307   0.0255  99.1109 0003481  89.6148  54.9154  1.00271064    19
GALAXY 17           [PM]
1 31307C 07016B   20258.55293982 -.00002473  00000-0  00000-0 0  2583
2 31307   0.0180 247.8409 0003536 300.4598 273.7581  1.00269605    18
INTELSAT 11             
1 32253C 07044B   20254.00000000 -.00000178  00000-0  00000-0 0  2544
2 32253   0.0037 132.5757 0001517  64.1211 109.8151  1.00273516    17
INTELSAT 11         [PM]
1 32253C 07044B   20257.42674769 -.00000178  00000-0  00000-0 0  2575
2 32253   0.0120 214.5607 0001502 355.5867 253.3841  1.00271215    18
INTELSAT 11             
1 32253C 07044B   20257.94788194 -.00000178  00000-0  00000-0 0  2570
2 32253   0.0108 208.8714 0001459   0.6130  82.1688  1.00270931    12
HORIZONS 2              
1 32388C 07063B   20254.00000000 -.00000093  00000-0  00000-0 0  2540
2 32388   0.0040 117.0918 0002683  57.1690 260.0892  1.00273545    19
HORIZONS 2          [PM]
1 32388C 07063B   20257.07630787 -.00000094  00000-0  00000-0 0  2575
2 32388   0.0355 287.9865 0002378 248.7518 288.1273  1.00270816    16
HORIZONS 2              
1 32388C 07063B   20257.94788194 -.00000097  00000-0  00000-0 0  2570
2 32388   0.0304 267.3678 0002370 269.5046 242.6172  1.00270188    18
GALAXY 18               
1 32951C 08024A   20254.00000000  .00000115  00000-0  00000-0 0  2548
2 32951   0.0048 130.2192 0003082  47.8995  48.3805  1.00271836    14
GALAXY 18           [PM]
1 32951C 08024A   20257.63680556  .00000115  00000-0  00000-0 0  2573
2 32951   0.0276 250.8949 0003108 294.2196 274.2262  1.00271384    11
GALAXY 18               
1 32951C 08024A   20257.94788194  .00000113  00000-0  00000-0 0  2572
2 32951   0.0274 249.3511 0003058 295.2576  27.0262  1.00271497    13
INTELSAT 25             
1 33153C 08034A   20254.00000000 -.00000134  00000-0  00000-0 0  2546
2 33153   0.0101 171.1865 0002055  22.7177 124.0948  1.00273090    17
INTELSAT 25         [PM]
1 33153C 08034A   20257.88122685 -.00000134  00000-0  00000-0 0  2572
2 33153   0.0338 237.4507 0002196 324.2452  77.3770  1.00271547    18
INTELSAT 25             
1 33153C 08034A   20257.94788194 -.00000134  00000-0  00000-0 0  2572
2 33153   0.0178 152.0855 0002034  51.8807  99.1704  1.00270709    14
GALAXY 19               
1 33376C 08045A   20254.00000000 -.00000048  00000-0  00000-0 0  2549
2 33376   0.0107 225.9928 0003053 306.3820  80.1367  1.00271872    16
GALAXY 19           [PM]
1 33376C 08045A   20254.59027778 -.00000050  00000-0  00000-0 0  2547
2 33376   0.0072 211.6195 0003054 322.6651 291.3095  1.00271927    14
GALAXY 19               
1 33376C 08045A   20257.94788194 -.00000053  00000-0  00000-0 0  2571
2 33376   0.0036 166.2496 0002918  12.6906  58.6983  1.00270392    15
INTELSAT 14             
1 36097C 09064A   20254.00000000 -.00000198  00000-0  00000-0 0  2540
2 36097   0.0026 149.1751 0002410  30.1529 125.1814  1.00273725    10
INTELSAT 14             
1 36097C 09064A   20257.94788194 -.00000183  00000-0  00000-0 0  2570
2 36097   0.0135 135.5573 0002295  50.8266 103.2690  1.00270994    14
INTELSAT 14         [PM]
1 36097C 09064A   20258.91702546 -.00000183  00000-0  00000-0 0  2586
2 36097   0.0270 239.6696 0002177 311.1248  88.7048  1.00267458    13
INTELSAT 15             
1 36106C 09067A   20254.00000000 -.00000097  00000-0  00000-0 0  2542
2 36106   0.0313 296.3131 0002218 239.6824 258.6588  1.00271076    14
INTELSAT 15         [PM]
1 36106C 09067A   20256.50241898 -.00000111  00000-0  00000-0 0  2560
2 36106   0.0053 213.8330 0002144 325.5315  78.6254  1.00272002    18
INTELSAT 15             
1 36106C 09067A   20257.94788194 -.00000086  00000-0  00000-0 0  2576
2 36106   0.0012 187.4510 0002123 353.2855 239.0471  1.00270919    12
INTELSAT 16             
1 36397C 10006A   20254.00000000 -.00000190  00000-0  00000-0 0  2543
2 36397   0.0201 262.0049 0002172 279.8683  91.4280  1.00271242    15
INTELSAT 16             
1 36397C 10006A   20257.94788194 -.00000138  00000-0  00000-0 0  2571
2 36397   0.0001 166.7746 0001997  17.9688  73.6923  1.00271081    14
INTELSAT 16         [PM]
1 36397C 10006A   20260.87662037 -.00000154  00000-0  00000-0 0  2606
2 36397   0.0012 161.7862 0001812  10.3566  63.5155  1.00272942    10
INTELSAT 17             
1 37238C 10065B   20254.00000000  .00000088  00000-0  00000-0 0  2548
2 37238   0.0276 235.4554 0002808 312.3899 227.6585  1.00272357    14
INTELSAT 17             
1 37238C 10065B   20257.94788194  .00000088  00000-0  00000-0 0  2574
2 37238   0.0385 240.7538 0002810 311.0059 208.8790  1.00270233    13
INTELSAT 17         [PM]
1 37238C 10065B   20259.10648148  .00000088  00000-0  00000-0 0  2590
2 37238   0.0363 233.6537 0002748 319.1210 266.1085  1.00270105    19
INTELSAT NEW DAWN       
1 37392C 11016A   20254.00000000  .00000246  00000-0  00000-0 0  2542
2 37392   0.0210 215.8017 0000824 358.1385 168.3635  1.00273448    12
INTELSAT NEW DAWN   [PM]
1 37392C 11016A   20257.05854167  .00000246  00000-0  00000-0 0  2574
2 37392   0.0182 187.8950 0000697  26.1080 192.4174  1.00270053    11
INTELSAT NEW DAWN       
1 37392C 11016A   20257.94788194  .00000246  00000-0  00000-0 0  2578
2 37392   0.0188 184.4504 0000663  30.7937 152.2126  1.00270055    13
INTELSAT NEW DAWN   [PM]
1 37392C 11016A   20258.43109954  .00000246  00000-0  00000-0 0  2585
2 37392   0.0190 183.1311 0000581  37.6932 321.0665  1.00270239    16
INTELSAT 18             
1 37834C 11056A   20254.00000000  .00000143  00000-0  00000-0 0  2543
2 37834   0.0001 144.8736 0002567  35.5690 349.0544  1.00270436    12
INTELSAT 18             
1 37834C 11056A   20257.94788194  .00000143  00000-0  00000-0 0  2579
2 37834   0.0105 130.7536 0002252  54.8409 329.0538  1.00272740    13
INTELSAT 18         [PM]
1 37834C 11056A   20258.80864583  .00000143  00000-0  00000-0 0  2583
2 37834   0.0122 214.9430 0002258 323.9002 286.5336  1.00268570    14
INTELSAT 22             
1 38098C 12011A   20254.00000000  .00000031  00000-0  00000-0 0  2544
2 38098   0.0026 134.3395 0003146  62.6777 224.5856  1.00272673    16
INTELSAT 22         [PM]
1 38098C 12011A   20257.59415509  .00000031  00000-0  00000-0 0  2578
2 38098   0.0288 255.9870 0003105 305.9521  77.1118  1.00270624    16
INTELSAT 22             
1 38098C 12011A   20257.94788194  .00000030  00000-0  00000-0 0  2579
2 38098   0.0281 253.2299 0003156 308.8787 204.6321  1.00270292    11
INTELSAT 19             
1 38356C 12030A   20254.00000000  .00000038  00000-0  00000-0 0  2549
2 38356   0.0056 123.6391 0002942  52.0506 339.8240  1.00271855    17
INTELSAT 19         [PM]
1 38356C 12030A   20254.92144676  .00000034  00000-0  00000-0 0  2544
2 38356   0.0089 120.1335 0002921  57.4225 310.5870  1.00271809    11
INTELSAT 19             
1 38356C 12030A   20257.94788194  .00000034  00000-0  00000-0 0  2571
2 38356   0.0167 123.0421 0002786  58.1612 319.4400  1.00270791    19
INTELSAT 20             
1 38740C 12043A   20254.00000000  .00000066  00000-0  00000-0 0  2541
2 38740   0.0095 155.4589 0001740  47.7677 214.7782  1.00272055    19
INTELSAT 20         [PM]
1 38740C 12043A   20254.11597222  .00000066  00000-0  00000-0 0  2540
2 38740   0.0094 152.1376 0001766  42.6334 265.0946  1.00272742    12
INTELSAT 20             
1 38740C 12043A   20258.00000000  .00000066  00000-0  00000-0 0  2589
2 38740   0.0134 161.1118 0001652  41.0528 219.7870  1.00269859    10
INTELSAT 21             
1 38749C 12045A   20254.00000000 -.00000217  00000-0  00000-0 0  2541
2 38749   0.0041 134.6566 0002129  45.1191 111.7310  1.00273172    12
INTELSAT 21             
1 38749C 12045A   20257.94788194 -.00000195  00000-0  00000-0 0  2572
2 38749   0.0155 127.8661 0001992  58.3975  90.3786  1.00270432    16
INTELSAT 21         [PM]
1 38749C 12045A   20258.95182870 -.00000195  00000-0  00000-0 0  2584
2 38749   0.0269 243.3289 0002090 300.0867  95.6317  1.00270851    12
INTELSAT 23         [PM]
1 38867C 12057A   20251.97557870 -.00000194  00000-0  00000-0 0  2511
2 38867   0.0035 167.4067 0001752 355.2593 123.0358  1.00274977    10
INTELSAT 23             
1 38867C 12057A   20254.00000000 -.00000195  00000-0  00000-0 0  2540
2 38867   0.0065 143.4884 0001691  24.3864 128.6341  1.00274159    16
INTELSAT 23             
1 38867C 12057A   20257.94788194 -.00000195  00000-0  00000-0 0  2576
2 38867   0.0174 133.9221 0001504  38.9346 108.8012  1.00271373    15
INTELSAT 23         [PM]
1 38867C 12057A   20260.45531250 -.00000195  00000-0  00000-0 0  2609
2 38867   0.0198 222.7152 0001597 304.0000 300.0851  1.00268861    12
INTELSAT 30         [PM]
1 40271C 14062A   20253.41041667 -.00000080  00000-0  00000-0 0  2530
2 40271   0.0000 191.6363 0001657 256.2392 313.7413  1.00273394    15
INTELSAT 30             
1 40271C 14062A   20254.00000000 -.00000061  00000-0  00000-0 0  2542
2 40271   0.0000 143.1582 0001583 312.5845 158.7077  1.00271435    14
INTELSAT 30             
1 40271C 14062A   20258.00000000 -.00000059  00000-0  00000-0 0  2587
2 40271   0.0013 173.0311 0001657 272.5380 172.8313  1.00269850    19
INTELSAT 34             
1 40874C 15039A   20254.00000000 -.00000215  00000-0  00000-0 0  2547
2 40874   0.0338 329.7987 0000385  28.9761 295.2396  1.00271376    17
